{
  "type": "FeatureCollection",
  "features": [
    {
      "type": "Feature",
      "properties": {
        "norad_id": 43602,
        "name": "BEIDOU-3 M12 (C26)",
        "group": "beidou",
        "lat": 6.017638811373728,
        "lon": 3.1083059109040696,
        "alt_km": 21544.847849839105,
        "timestamp": "2025-12-09T14:52:26.427120+00:00",
        "meta_object_name": "BEIDOU-3 M12 (C26)",
        "meta_object_id": "2018-067A",
        "meta_epoch": "2025-12-07T18:02:34.116000",
        "meta_mean_motion": 1.86227677,
        "meta_eccentricity": 0.00091651,
        "meta_inclination": 54.1832,
        "meta_ra_of_asc_node": 187.5325,
        "meta_arg_of_pericenter": 40.8071,
        "meta_mean_anomaly": 319.3279,
        "meta_ephemeris_type": 0,
        "meta_classification_type": "U",
        "meta_norad_cat_id": 43602,
        "meta_element_set_no": 999,
        "meta_rev_at_epoch": 4955,
        "meta_bstar": 0,
        "meta_mean_motion_dot": 5.6e-07,
        "meta_mean_motion_ddot": 0,
        "tle_line1": "1 43602U 18067A   25341.75178375  .00000056  00000+0  00000+0 0  9994",
        "tle_line2": "2 43602  54.1832 187.5325 0009165  40.8071 319.3279  1.86227677 49555"
      },
      "geometry": {
        "type": "Point",
        "coordinates": [
          3.1083059109040696,
          6.017638811373728
        ]
      }
    },
    {
      "type": "Feature",
      "properties": {
        "norad_id": 43603,
        "name": "BEIDOU-3 M11 (C25)",
        "group": "beidou",
        "lat": 53.44698600948682,
        "lon": -95.55747764620519,
        "alt_km": 21511.248183066742,
        "timestamp": "2025-12-09T14:52:26.427131+00:00",
        "meta_object_name": "BEIDOU-3 M11 (C25)",
        "meta_object_id": "2018-067B",
        "meta_epoch": "2025-12-07T08:23:01.607424",
        "meta_mean_motion": 1.86227152,
        "meta_eccentricity": 0.0005581,
        "meta_inclination": 54.1802,
        "meta_ra_of_asc_node": 187.5102,
        "meta_arg_of_pericenter": 36.6822,
        "meta_mean_anomaly": 323.425,
        "meta_ephemeris_type": 0,
        "meta_classification_type": "U",
        "meta_norad_cat_id": 43603,
        "meta_element_set_no": 999,
        "meta_rev_at_epoch": 4957,
        "meta_bstar": 0,
        "meta_mean_motion_dot": 6e-07,
        "meta_mean_motion_ddot": 0,
        "tle_line1": "1 43603U 18067B   25341.34932416  .00000060  00000+0  00000+0 0  9999",
        "tle_line2": "2 43603  54.1802 187.5102 0005581  36.6822 323.4250  1.86227152 49576"
      },
      "geometry": {
        "type": "Point",
        "coordinates": [
          -95.55747764620519,
          53.44698600948682
        ]
      }
    },
    {
      "type": "Feature",
      "properties": {
        "norad_id": 43622,
        "name": "BEIDOU-3 M13 (C32)",
        "group": "beidou",
        "lat": 50.94967230750747,
        "lon": -165.81576587879266,
        "alt_km": 21538.488518889535,
        "timestamp": "2025-12-09T14:52:26.427142+00:00",
        "meta_object_name": "BEIDOU-3 M13 (C32)",
        "meta_object_id": "2018-072A",
        "meta_epoch": "2025-12-08T09:06:52.153056",
        "meta_mean_motion": 1.86230751,
        "meta_eccentricity": 0.00059246,
        "meta_inclination": 56.4552,
        "meta_ra_of_asc_node": 68.9648,
        "meta_arg_of_pericenter": 298.4192,
        "meta_mean_anomaly": 61.5427,
        "meta_ephemeris_type": 0,
        "meta_classification_type": "U",
        "meta_norad_cat_id": 43622,
        "meta_element_set_no": 999,
        "meta_rev_at_epoch": 4910,
        "meta_bstar": 0,
        "meta_mean_motion_dot": -4.5e-07,
        "meta_mean_motion_ddot": 0,
        "tle_line1": "1 43622U 18072A   25342.37977029 -.00000045  00000+0  00000+0 0  9993",
        "tle_line2": "2 43622  56.4552  68.9648 0005924 298.4192  61.5427  1.86230751 49104"
      },
      "geometry": {
        "type": "Point",
        "coordinates": [
          -165.81576587879266,
          50.94967230750747
        ]
      }
    },
    {
      "type": "Feature",
      "properties": {
        "norad_id": 43623,
        "name": "BEIDOU-3 M14 (C33)",
        "group": "beidou",
        "lat": -17.822252435838248,
        "lon": -98.77635558319592,
        "alt_km": 21536.871910823622,
        "timestamp": "2025-12-09T14:52:26.427154+00:00",
        "meta_object_name": "BEIDOU-3 M14 (C33)",
        "meta_object_id": "2018-072B",
        "meta_epoch": "2025-12-09T07:39:35.322912",
        "meta_mean_motion": 1.86230627,
        "meta_eccentricity": 0.00032051,
        "meta_inclination": 56.458,
        "meta_ra_of_asc_node": 68.9278,
        "meta_arg_of_pericenter": 335.7988,
        "meta_mean_anomaly": 24.209,
        "meta_ephemeris_type": 0,
        "meta_classification_type": "U",
        "meta_norad_cat_id": 43623,
        "meta_element_set_no": 999,
        "meta_rev_at_epoch": 4911,
        "meta_bstar": 0,
        "meta_mean_motion_dot": -4.8e-07,
        "meta_mean_motion_ddot": 0,
        "tle_line1": "1 43623U 18072B   25343.31915883 -.00000048  00000+0  00000+0 0  9992",
        "tle_line2": "2 43623  56.4580  68.9278 0003205 335.7988  24.2090  1.86230627 49118"
      },
      "geometry": {
        "type": "Point",
        "coordinates": [
          -98.77635558319592,
          -17.822252435838248
        ]
      }
    },
    {
      "type": "Feature",
      "properties": {
        "norad_id": 43647,
        "name": "BEIDOU-3 M16 (C35)",
        "group": "beidou",
        "lat": 53.857904753268606,
        "lon": 46.5253317397607,
        "alt_km": 21517.109477114136,
        "timestamp": "2025-12-09T14:52:26.427165+00:00",
        "meta_object_name": "BEIDOU-3 M16 (C35)",
        "meta_object_id": "2018-078A",
        "meta_epoch": "2025-12-08T22:33:41.935680",
        "meta_mean_motion": 1.86232209,
        "meta_eccentricity": 0.0007116,
        "meta_inclination": 54.2656,
        "meta_ra_of_asc_node": 306.6541,
        "meta_arg_of_pericenter": 19.0293,
        "meta_mean_anomaly": 340.9862,
        "meta_ephemeris_type": 0,
        "meta_classification_type": "U",
        "meta_norad_cat_id": 43647,
        "meta_element_set_no": 999,
        "meta_rev_at_epoch": 4861,
        "meta_bstar": 0,
        "meta_mean_motion_dot": -7.5e-07,
        "meta_mean_motion_ddot": 0,
        "tle_line1": "1 43647U 18078A   25342.94006870 -.00000075  00000+0  00000+0 0  9999",
        "tle_line2": "2 43647  54.2656 306.6541 0007116  19.0293 340.9862  1.86232209 48612"
      },
      "geometry": {
        "type": "Point",
        "coordinates": [
          46.5253317397607,
          53.857904753268606
        ]
      }
    },
    {
      "type": "Feature",
      "properties": {
        "norad_id": 43648,
        "name": "BEIDOU-3 M15 (C34)",
        "group": "beidou",
        "lat": 7.347516647891153,
        "lon": -48.064297631332046,
        "alt_km": 21517.34817546635,
        "timestamp": "2025-12-09T14:52:26.427176+00:00",
        "meta_object_name": "BEIDOU-3 M15 (C34)",
        "meta_object_id": "2018-078B",
        "meta_epoch": "2025-12-09T01:39:46.574784",
        "meta_mean_motion": 1.86231876,
        "meta_eccentricity": 0.0003594,
        "meta_inclination": 54.2613,
        "meta_ra_of_asc_node": 306.6504,
        "meta_arg_of_pericenter": 17.607,
        "meta_mean_anomaly": 342.3947,
        "meta_ephemeris_type": 0,
        "meta_classification_type": "U",
        "meta_norad_cat_id": 43648,
        "meta_element_set_no": 999,
        "meta_rev_at_epoch": 4863,
        "meta_bstar": 0,
        "meta_mean_motion_dot": -7.5e-07,
        "meta_mean_motion_ddot": 0,
        "tle_line1": "1 43648U 18078B   25343.06928906 -.00000075  00000+0  00000+0 0  9997",
        "tle_line2": "2 43648  54.2613 306.6504 0003594  17.6070 342.3947  1.86231876 48639"
      },
      "geometry": {
        "type": "Point",
        "coordinates": [
          -48.064297631332046,
          7.347516647891153
        ]
      }
    },
    {
      "type": "Feature",
      "properties": {
        "norad_id": 43683,
        "name": "BEIDOU-3 G1 (C59)",
        "group": "beidou",
        "lat": -0.92149314830568,
        "lon": 81.789724906963,
        "alt_km": 35785.46348013274,
        "timestamp": "2025-12-09T14:52:26.427189+00:00",
        "meta_object_name": "BEIDOU-3 G1 (C59)",
        "meta_object_id": "2018-085A",
        "meta_epoch": "2025-12-08T17:41:39.231168",
        "meta_mean_motion": 1.00272068,
        "meta_eccentricity": 0.0001779,
        "meta_inclination": 2.5974,
        "meta_ra_of_asc_node": 103.0581,
        "meta_arg_of_pericenter": 62.9114,
        "meta_mean_anomaly": 317.2543,
        "meta_ephemeris_type": 0,
        "meta_classification_type": "U",
        "meta_norad_cat_id": 43683,
        "meta_element_set_no": 999,
        "meta_rev_at_epoch": 2615,
        "meta_bstar": 0,
        "meta_mean_motion_dot": -2.75e-06,
        "meta_mean_motion_ddot": 0,
        "tle_line1": "1 43683U 18085A   25342.73725962 -.00000275  00000+0  00000+0 0  9996",
        "tle_line2": "2 43683   2.5974 103.0581 0001779  62.9114 317.2543  1.00272068 26153"
      },
      "geometry": {
        "type": "Point",
        "coordinates": [
          81.789724906963,
          -0.92149314830568
        ]
      }
    }
  ]
}